DIWATA-2B               
1 43678U 18084H   26067.52147159  .00003966  00000+0  32406-3 0  9995
2 43678  98.1036 259.5100 0011655 130.6731 229.5506 14.99955388401126
STARS-AO                
1 43679U 18084J   26067.51367667  .00011347  00000+0  59755-3 0  9991
2 43679  98.0616 275.2964 0002915 129.6002 230.5486 15.15797338402219
AUTCUBE 2               
1 43681U 18084K   26067.48708189  .00006941  00000+0  43917-3 0  9995
2 43681  98.0798 268.3167 0009734  31.0257 329.1544 15.09309475401735
METOP-C                 
1 43689U 18087A   26067.48397587  .00000150  00000+0  88293-4 0  9995
2 43689  98.6768 128.8774 0002200 101.2783 258.8642 14.21496568380528
ES'HAIL 2               
1 43700U 18090A   26067.51208963  .00000145  00000+0  00000+0 0  9995
2 43700   0.0132 181.1272 0001062 176.2918  18.9103  1.00275360 26663
MOHAMMED VI-B           
1 43717U 18095A   26067.51227741  .00001678  00000+0  24461-3 0  9996
2 43717  97.9419 141.2733 0001218  90.5413 269.5937 14.77128531393328
HYSIS                   
1 43719U 18096A   26067.51817106  .00001312  00000+0  18617-3 0  9990
2 43719  97.9940 135.0097 0001741  98.1493 261.9915 14.78653733392549
COSMOS 2530 (RODNIK-S *)
1 43751U 18097A   26067.51323898  .00000135  00000+0  90751-3 0  9998
2 43751  82.5108 284.7835 0018806 255.6180 104.2813 12.42878641329784
COSMOS 2531 (RODNIK-S *)
1 43752U 18097B   26067.53805962  .00000115  00000+0  76123-3 0  9993
2 43752  82.5155 285.7928 0016002 275.5132  84.4123 12.42909638329802
COSMOS 2532 (RODNIK-S *)
1 43753U 18097C   26067.56606477  .00000163  00000+0  11082-2 0  9992
2 43753  82.5098 284.6068 0017361 277.6455  82.2653 12.42906301329776
MINXSS-2                
1 43758U 18099A   26067.15729895  .00045905  00000+0  11385-2 0  9993
2 43758  97.4625 140.9562 0007522 265.6754  94.3633 15.40206377398542
SIRION PATHFINDER-2     
1 43759U 18099B   26067.39546836  .00009096  00000+0  51079-3 0  9998
2 43759  97.4392 118.8525 0007271 292.1450  67.9010 15.13523731397377
AISTECHSAT 2            
1 43768U 18099L   26067.29295836  .00010537  00000+0  57838-3 0  9999
2 43768  97.4430 117.5453 0003316 294.9122  65.1765 15.14317532397006
FOX-1CLIFF (AO-95)      
1 43770U 18099N   26067.13344740  .00018378  00000+0  75163-3 0  9996
2 43770  97.4504 127.8640 0008444 353.0716   7.0403 15.24364603397811
2018-099Q               
1 43772U 18099Q   26067.16579404  .00121319  00000+0  16439-2 0  9998
2 43772  97.4298 142.4928 0002950 210.0298 150.0789 15.57260874398816
RANGE-A                 
1 43773U 18099R   26067.51502733  .00007732  00000+0  44786-3 0  9998
2 43773  97.4107 113.0362 0009753 345.0689  15.0252 15.12444318397275
SNUSAT-2                
1 43782U 18099AA  26067.08701640  .00014225  00000+0  65965-3 0  9995
2 43782  97.4196 122.0785 0009062 292.0650  67.9622 15.20132617397669
SNUGLITE                
1 43784U 18099AC  26067.09802199  .00019905  00000+0  80431-3 0  9994
2 43784  97.4005 122.4777 0001361 290.3246  69.7846 15.24784050397904
ITASAT                  
1 43786U 18099AE  26067.38996519  .00011653  00000+0  58061-3 0  9994
2 43786  97.4165 120.9448 0012345 351.4735   8.6287 15.17652557397614
EAGLET-I                
1 43790U 18099AJ  26067.09856566  .00007293  00000+0  42675-3 0  9993
2 43790  97.4368 119.4351 0010674 342.5223  17.5639 15.12088284397059
ESEO                    
1 43792U 18099AL  26067.39112837  .00003455  00000+0  25460-3 0  9993
2 43792  97.4111 109.0483 0011210 322.0156  38.0278 15.03908197396659
THEA                    
1 43796U 18099AQ  26067.17540170  .00027118  00000+0  89494-3 0  9997
2 43796  97.4545 136.1074 0006584 283.1649  76.8857 15.31369752397218
ASTROCAST 0.1           
1 43798U 18099AS  26067.17687249  .00046236  00000+0  10499-2 0  9998
2 43798  97.4461 142.9995 0005492 213.9424 146.1472 15.42881298398821
JY1SAT (JO-97)          
1 43803U 18099AX  26067.11697932  .00027177  00000+0  92926-3 0  9998
2 43803  97.4252 129.7935 0004705 264.7393  95.3310 15.30230747398154
SUOMI-100               
1 43804U 18099AY  26067.10893344  .00019365  00000+0  75522-3 0  9996
2 43804  97.4320 127.9954 0008970 276.4167  83.6050 15.25942428397991
AL-FARABI 2             
1 43805U 18099AZ  26067.27538162  .00205462  00000+0  18454-2 0  9994
2 43805  97.4101 143.0335 0004550 219.7209 140.3719 15.67610888399137
CENTAURI-1              
1 43809U 18099BD  26067.40461429  .00009794  00000+0  52322-3 0  9997
2 43809  97.4358 121.3006 0013240 323.1685  36.8637 15.15231339397233
GLOBAL-2                
1 43812U 18099BG  26067.37249035  .00005300  00000+0  34782-3 0  9993
2 43812  97.3698 108.0550 0007317 131.0935 229.0927 15.08037108396711
SEAHAWK-1               
1 43820U 18099BQ  26067.21349234  .00016122  00000+0  72894-3 0  9997
2 43820  97.4095 121.3001 0007058 309.0425  51.0182 15.20989403397179
SAUDISAT 5A             
1 43831U 18102A   26067.54438844  .00009103  00000+0  34640-3 0  9994
2 43831  97.3187 131.0842 0011296 126.0857 234.1430 15.26918084400312
SAUDISAT 5B             
1 43833U 18102C   26067.51640309  .00009567  00000+0  36043-3 0  9997
2 43833  97.3283 133.9468 0011994 128.6240 231.6075 15.27228241400424
2018-102D               
1 43834U 18102D   26067.52691179  .00062783  00000+0  89767-3 0  9990
2 43834  97.3482 153.0120 0005332  82.5036 277.6825 15.56013523401548
ISAT                    
1 43879U 18111D   26067.36895377  .00088256  00000+0  15110-2 0  9990
2 43879  97.5900 356.0466 0003132 342.2283  17.8858 15.50925202395472
UWE-4                   
1 43880U 18111E   26067.24552406  .00048386  00000+0  12126-2 0  9996
2 43880  97.5852 351.4815 0007758 346.1191  13.9840 15.39875534395215
D-STAR ONE (SPARROW)    
1 43881U 18111F   26067.32452817  .00109028  00000+0  16311-2 0  9992
2 43881  97.6115   0.3722 0004553  40.8212 319.3382 15.54602603395618
JILIN-1 09              
1 43943U 19005B   26067.52635086  .00008767  00000+0  41602-3 0  9997
2 43943  97.4705 163.4492 0003769  90.2382 269.9285 15.19494355393850
JILIN-1 10              
1 43946U 19005E   26067.54595443  .00011338  00000+0  46449-3 0  9996
2 43946  97.4733 166.4813 0006904 271.0377  89.0069 15.24433445393974
EGYPTSAT-A (MISRSAT-A)  
1 44047U 19008A   26067.49235266  .00001363  00000+0  22351-3 0  9993
2 44047  98.0147 133.7268 0001111  83.1525 276.9809 14.72293142378428
EMISAT                  
1 44078U 19018A   26067.50818831  .00000424  00000+0  13785-3 0  9993
2 44078  98.4771 126.8079 0019040 157.7680 202.4340 14.43625024365530
JILIN-1 GAOFEN 3A       
1 44312U 19032C   26067.50510380  .00020814  00000+0  70635-3 0  9990
2 44312  44.9751 190.0873 0002558 102.5327 257.5842 15.30229735372400
WT 1A                   
1 44315U 19032F   26067.41798351  .00242837  00000+0  15376-2 0  9990
2 44315  44.9750  85.5984 0007927  74.4599 285.7177 15.75077912373655
WT 1B                   
1 44316U 19032G   26067.52881346  .00020188  00000+0  80340-3 0  9997
2 44316  44.9737 249.5047 0008210  41.0782 319.0716 15.24974217371705
PROX-1                  
1 44339U 19036A   26067.35923831  .00022458  00000+0  23540-2 0  9993
2 44339  23.9957  66.4627 0005930 304.6548  55.3392 14.88007754358421
NPSAT1                  
1 44340U 19036B   26067.52309214  .00009631  00000+0  14124-2 0  9993
2 44340  23.9976 152.8606 0008152 149.9430 210.1534 14.73498838357621
FORMOSAT 7-3            
1 44343U 19036E   26067.50376463  .00007973  00000+0  47088-3 0  9997
2 44343  23.9982 151.0703 0001186 139.6885 220.3706 15.08916795368015
FORMOSAT 7-1            
1 44349U 19036L   26067.14851825  .00005138  00000+0  42067-3 0  9996
2 44349  23.9993 353.3304 0001045  77.4119 282.6499 14.96013355369501
FORMOSAT 7-4            
1 44350U 19036M   26067.37073269  .00004815  00000+0  39265-3 0  9998
2 44350  23.9992  53.9280 0001409  91.9115 268.1547 14.96005198368956
FORMOSAT 7-2            
1 44351U 19036N   26067.45987638  .00004628  00000+0  37636-3 0  9994
2 44351  23.9981 107.6438 0000979  93.1446 266.9166 14.96013247368484
FORMOSAT 7-6            
1 44353U 19036Q   26066.99325199  .00004574  00000+0  37158-3 0  9991
2 44353  23.9976 291.6180 0001174  15.2311 344.8225 14.96017867366642
FORMOSAT 7-5            
1 44358U 19036V   26066.77050072  .00004502  00000+0  36538-3 0  9999
2 44358  23.9971 231.8611 0000856  78.8427 281.2169 14.96012756367145
METEOR-M2 2             
1 44387U 19038A   26067.51060545  .00000362  00000+0  17642-3 0  9997
2 44387  98.9090  53.3458 0000970   5.6742 354.4447 14.24333976346962
COSMOS 2535             
1 44421U 19039A   26067.53285611  .00002239  00000+0  22769-3 0  9993
2 44421  97.5894  99.5027 0008391 177.9641 182.1614 14.91712368361631
GLOBAL-4                
1 44499U 19054E   26066.37707635  .00055219  00000+0  79696-3 0  9998
2 44499  45.0067  99.8080 0006085 354.0441   6.0380 15.55211695364468
ZY-1 02D                
1 44528U 19059A   26067.48579278  .00000534  00000+0  20063-3 0  9993
2 44528  98.3305 132.4867 0002586  76.8610 283.2865 14.35450489339892
TAURUS-1 (JINNIUZUO 1)  
1 44530U 19059C   26067.46963802  .00013105  00000+0  21505-2 0  9993
2 44530  98.6311 226.1950 0008349 261.5624  98.4634 14.70793051343833
ZHUHAI-1 03B            
1 44536U 19060C   26067.48372027  .00048763  00000+0  93141-3 0  9990
2 44536  97.5405 220.3460 0008551 325.8809  34.1891 15.47932055360719
ZHUHAI-1 03C            
1 44537U 19060D   26067.50329615  .00125741  00000+0  99835-3 0  9997
2 44537  97.5521 229.6986 0011159 271.8217  88.1767 15.70796137361295
ZHUHAI-1 03D            
1 44538U 19060E   26067.49949458  .00043713  00000+0  96536-3 0  9992
2 44538  97.5252 213.3730 0008111 311.6474  48.4078 15.43707601360512
ZHUHAI-1 03E            
1 44539U 19060F   26067.54992944  .00032403  00000+0  88482-3 0  9992
2 44539  97.5462 214.3642 0006096  31.7208 328.4402 15.37333827360288
